{"type":"FeatureCollection","name":"potencialidades","features":[{"type":"Feature","properties":{"Name":"Balneario Pôr do Sol"},"geometry":{"type":"Point","coordinates":[-46.871233,-4.469759,0.0]}},{"type":"Feature","properties":{"Name":"Balneário Alegria"},"geometry":{"type":"Point","coordinates":[-46.755163,-5.648109,0.0]}},{"type":"Feature","properties":{"Name":"Lajo Calambajo"},"geometry":{"type":"Point","coordinates":[-47.008954,-5.585825,0.0]}},{"type":"Feature","properties":{"Name":"Parque Dilu Melo-Viana"},"geometry":{"type":"Point","coordinates":[-44.999755,-3.22149,0.0]}},{"type":"Feature","properties":{"Name":"Praça Matriz de Viana"},"geometry":{"type":"Point","coordinates":[-45.000686,-3.219681,0.0]}},{"type":"Feature","properties":{"Name":"Paroquia e Catedral Nossa Senhora da Conceição-Viana"},"geometry":{"type":"Point","coordinates":[-45.000386,-3.220239,0.0]}},{"type":"Feature","properties":{"Name":"Engenho Central-Pindare Mirim"},"geometry":{"type":"Point","coordinates":[-45.342203,-3.604917,0.0]}},{"type":"Feature","properties":{"Name":"Riacho Mata Velha"},"geometry":{"type":"Point","coordinates":[-46.720844,-5.581164,0.0]}},{"type":"Feature","properties":{"Name":"Parque de Vaquejadas-Bom Jesus das Selvas"},"geometry":{"type":"Point","coordinates":[-46.862742,-4.489591,0.0]}},{"type":"Feature","properties":{"Name":"Balneário Rio Azul"},"geometry":{"type":"Point","coordinates":[-46.880531,-4.42731,0.0]}}]}