{"type":"FeatureCollection","name":"sedes_municipais","features":[{"type":"Feature","properties":{"NAME":"ALTO ALEGRE DO PINDARÉ","GEOCODIGO_":2100477,"NOME_MUNIC":"ALTO ALEGRE DO PINDARÉ","UF":"ma"},"geometry":{"type":"Point","coordinates":[-45.84208,-3.66517]}},{"type":"Feature","properties":{"NAME":"AMARANTE DO MARANHÃO","GEOCODIGO_":2100600,"NOME_MUNIC":"AMARANTE DO MARANHÃO","UF":"ma"},"geometry":{"type":"Point","coordinates":[-46.750638,-5.557662]}},{"type":"Feature","properties":{"NAME":"ARAME","GEOCODIGO_":2100956,"NOME_MUNIC":"ARAME","UF":"ma"},"geometry":{"type":"Point","coordinates":[-46.013636,-4.886082]}},{"type":"Feature","properties":{"NAME":"BOM JARDIM","GEOCODIGO_":2102002,"NOME_MUNIC":"BOM JARDIM","UF":"ma"},"geometry":{"type":"Point","coordinates":[-45.601889,-3.544161]}},{"type":"Feature","properties":{"NAME":"BOM JESUS DAS SELVAS","GEOCODIGO_":2102036,"NOME_MUNIC":"BOM JESUS DAS SELVAS","UF":"ma"},"geometry":{"type":"Point","coordinates":[-46.853241,-4.489968]}},{"type":"Feature","properties":{"NAME":"BURITICUPU","GEOCODIGO_":2102325,"NOME_MUNIC":"BURITICUPU","UF":"ma"},"geometry":{"type":"Point","coordinates":[-46.451495,-4.325948]}},{"type":"Feature","properties":{"NAME":"BURITIRANA","GEOCODIGO_":2102358,"NOME_MUNIC":"BURITIRANA","UF":"ma"},"geometry":{"type":"Point","coordinates":[-47.017225,-5.588915]}},{"type":"Feature","properties":{"NAME":"CAJARI","GEOCODIGO_":2102507,"NOME_MUNIC":"CAJARI","UF":"ma"},"geometry":{"type":"Point","coordinates":[-45.007965,-3.323869]}},{"type":"Feature","properties":{"NAME":"GOVERNADOR NEWTON BELLO","GEOCODIGO_":2104651,"NOME_MUNIC":"GOVERNADOR NEWTON BELLO","UF":"ma"},"geometry":{"type":"Point","coordinates":[-45.674502,-3.429705]}},{"type":"Feature","properties":{"NAME":"MONÇÃO","GEOCODIGO_":2106904,"NOME_MUNIC":"MONÇÃO","UF":"ma"},"geometry":{"type":"Point","coordinates":[-45.247585,-3.493932]}},{"type":"Feature","properties":{"NAME":"PENALVA","GEOCODIGO_":2108306,"NOME_MUNIC":"PENALVA","UF":"ma"},"geometry":{"type":"Point","coordinates":[-45.176462,-3.293233]}},{"type":"Feature","properties":{"NAME":"PINDARÉ-MIRIM","GEOCODIGO_":2108504,"NOME_MUNIC":"PINDARÉ-MIRIM","UF":"ma"},"geometry":{"type":"Point","coordinates":[-45.346868,-3.605501]}},{"type":"Feature","properties":{"NAME":"SANTA INÊS","GEOCODIGO_":2109908,"NOME_MUNIC":"SANTA INÊS","UF":"ma"},"geometry":{"type":"Point","coordinates":[-45.378272,-3.658575]}},{"type":"Feature","properties":{"NAME":"SANTA LUZIA","GEOCODIGO_":2110005,"NOME_MUNIC":"SANTA LUZIA","UF":"ma"},"geometry":{"type":"Point","coordinates":[-45.665012,-3.968391]}},{"type":"Feature","properties":{"NAME":"SÃO JOÃO DO CARÚ","GEOCODIGO_":2111029,"NOME_MUNIC":"SÃO JOÃO DO CARÚ","UF":"ma"},"geometry":{"type":"Point","coordinates":[-46.254925,-3.560803]}},{"type":"Feature","properties":{"NAME":"TUFILÂNDIA","GEOCODIGO_":2112274,"NOME_MUNIC":"TUFILÂNDIA","UF":"ma"},"geometry":{"type":"Point","coordinates":[-45.633916,-3.676404]}},{"type":"Feature","properties":{"NAME":"VIANA","GEOCODIGO_":2112803,"NOME_MUNIC":"VIANA","UF":"ma"},"geometry":{"type":"Point","coordinates":[-45.001307,-3.214563]}},{"type":"Feature","properties":{"NAME":"ZÉ DOCA","GEOCODIGO_":2114007,"NOME_MUNIC":"ZÉ DOCA","UF":"ma"},"geometry":{"type":"Point","coordinates":[-45.657698,-3.275481]}}]}